NORAD_CAT_ID,OBJECT_NAME,OBJECT_TYPE,EPOCH,MEAN_MOTION,ECCENTRICITY,INCLINATION,RA_OF_ASC_NODE,ARG_OF_PERICENTER,MEAN_ANOMALY,BSTAR,MEAN_MOTION_DOT,MEAN_MOTION_DDOT,TLE_LINE0,TLE_LINE1,TLE_LINE2,SEMIMAJOR_AXIS,PERIOD,APOGEE,PERIGEE,DECAYED
53004.0,STARLINK-4253,PAYLOAD,2024-02-23 14:38:25,15.08829562,0.0001339,53.2177,198.913,99.2813,260.8331,0.00017163,2.444e-05,0.0,0 STARLINK-4253,1 53004U 22076U   24054.61002257  .00002444  00000-0  17163-3 0  9992,2 53004  53.2177 198.9130 0001339  99.2813 260.8331 15.08829562 90365,6917.912,95.438,540.704,538.851,0.0
53004.0,STARLINK-4253,PAYLOAD,2024-02-23 19:24:34,15.08849226,0.0001281,53.2175,198.0199,97.7267,262.387,-2.2916e-05,-6.53e-06,0.0,0 STARLINK-4253,1 53004U 22076U   24054.80873332 -.00000653  00000-0 -22916-4 0  9998,2 53004  53.2175 198.0199 0001281  97.7267 262.3870 15.08849226 90860,6917.852,95.437,540.603,538.831,0.0
53004.0,STARLINK-4253,PAYLOAD,2024-02-24 09:43:03,15.08827979,0.0001391,53.2169,195.3424,105.4931,254.6214,0.00012168,1.649e-05,0.0,0 STARLINK-4253,1 53004U 22076U   24055.40490288  .00001649  00000-0  12168-3 0  9991,2 53004  53.2169 195.3424 0001391 105.4931 254.6214 15.08827979 90958,6917.917,95.438,540.744,538.82,0.0
53004.0,STARLINK-4253,PAYLOAD,2024-02-24 14:29:12,15.08831279,0.0001391,53.2177,194.4536,97.9883,262.1267,0.00014829,2.072e-05,0.0,0 STARLINK-4253,1 53004U 22076U   24055.60362166  .00002072  00000-0  14829-3 0  9993,2 53004  53.2177 194.4536 0001391  97.9883 262.1267 15.08831279 90514,6917.907,95.438,540.734,538.81,0.0
53004.0,STARLINK-4253,PAYLOAD,2024-02-24 16:04:35,15.08836232,0.0001213,53.218,194.1574,89.3512,270.7619,0.00010621,1.403e-05,0.0,0 STARLINK-4253,1 53004U 22076U   24055.66985945  .00001403  00000-0  10621-3 0  9998,2 53004  53.2180 194.1574 0001213  89.3512 270.7619 15.08836232 90996,6917.892,95.438,540.596,538.918,0.0
53004.0,STARLINK-4253,PAYLOAD,2024-02-25 14:19:59,15.08841679,0.0001259,53.2163,189.9892,74.1513,285.9618,2.9252e-05,1.78e-06,0.0,0 STARLINK-4253,1 53004U 22076U   24056.59721940  .00000178  00000-0  29252-4 0  9993,2 53004  53.2163 189.9892 0001259  74.1513 285.9618 15.08841679 90667,6917.875,95.437,540.611,538.869,0.0
53004.0,STARLINK-4253,PAYLOAD,2024-02-25 19:06:08,15.08851181,0.0001163,53.2164,189.098,76.8569,283.2553,0.00010398,1.368e-05,0.0,0 STARLINK-4253,1 53004U 22076U   24056.79593014  .00001368  00000-0  10398-3 0  9996,2 53004  53.2164 189.0980 0001163  76.8569 283.2553 15.08851181 91165,6917.846,95.437,540.516,538.907,0.0
53004.0,STARLINK-4253,PAYLOAD,2024-02-26 01:27:42,15.08827057,0.0001795,53.2168,187.9074,80.2349,279.8845,-3.2653e-05,-8.08e-06,0.0,0 STARLINK-4253,1 53004U 22076U   24057.06091240 -.00000808  00000-0 -32653-4 0  9990,2 53004  53.2168 187.9074 0001795  80.2349 279.8845 15.08827057 91201,6917.92,95.438,541.027,538.543,0.0
53004.0,STARLINK-4253,PAYLOAD,2024-02-26 14:10:48,15.08824804,0.000153,53.2177,185.5295,84.6782,275.4385,-8.807e-05,-1.689e-05,0.0,0 STARLINK-4253,1 53004U 22076U   24057.59083893 -.00001689  00000-0 -88070-4 0  9995,2 53004  53.2177 185.5295 0001530  84.6782 275.4385 15.08824804 90810,6917.927,95.439,540.85,538.733,0.0
53004.0,STARLINK-4253,PAYLOAD,2024-02-26 17:21:34,15.0882979,0.0001501,53.2183,184.9368,85.6409,274.4755,-3.6447e-05,-8.68e-06,0.0,0 STARLINK-4253,1 53004U 22076U   24057.72331533 -.00000868  00000-0 -36447-4 0  9996,2 53004  53.2183 184.9368 0001501  85.6409 274.4755 15.08829790 90837,6917.912,95.438,540.815,538.738,0.0
53004.0,STARLINK-4253,PAYLOAD,2024-02-27 12:26:11,15.08847683,0.0001413,53.2182,181.3693,95.1423,264.9731,1.042e-05,-1.22e-06,0.0,0 STARLINK-4253,1 53004U 22076U   24058.51818530 -.00000122  00000-0  10420-4 0  9996,2 53004  53.2182 181.3693 0001413  95.1423 264.9731 15.08847683 91427,6917.857,95.437,540.699,538.744,0.0
53004.0,STARLINK-4253,PAYLOAD,2024-02-27 14:01:34,15.08848918,0.0001433,53.2181,181.0718,93.5164,266.5992,2.4644e-05,1.04e-06,0.0,0 STARLINK-4253,1 53004U 22076U   24058.58442411  .00000104  00000-0  24644-4 0  9996,2 53004  53.2181 181.0718 0001433  93.5164 266.5992 15.08848918 90964,6917.853,95.437,540.709,538.727,0.0
53004.0,STARLINK-4253,PAYLOAD,2024-02-27 17:12:19,15.08856325,0.000132,53.2178,180.4754,92.3974,267.717,8.0419e-05,9.93e-06,0.0,0 STARLINK-4253,1 53004U 22076U   24058.71689736  .00000993  00000-0  80419-4 0  9992,2 53004  53.2178 180.4754 0001320  92.3974 267.7170 15.08856325 91451,6917.83,95.437,540.609,538.782,0.0
53004.0,STARLINK-4253,PAYLOAD,2024-02-28 13:52:22,15.08831085,0.0001351,53.218,176.6113,103.8724,256.2419,0.00018938,2.727e-05,0.0,0 STARLINK-4253,1 53004U 22076U   24059.57803503  .00002727  00000-0  18938-3 0  9990,2 53004  53.2180 176.6113 0001351 103.8724 256.2419 15.08831085 91584,6917.908,95.438,540.707,538.838,0.0
53004.0,STARLINK-4253,PAYLOAD,2024-02-28 17:03:08,15.08841736,0.000128,53.217,176.0146,103.1831,256.9304,0.00018001,2.578e-05,0.0,0 STARLINK-4253,1 53004U 22076U   24059.71050968  .00002578  00000-0  18001-3 0  9990,2 53004  53.2170 176.0146 0001280 103.1831 256.9304 15.08841736 91603,6917.875,95.437,540.626,538.855,0.0
53004.0,STARLINK-4253,PAYLOAD,2024-02-29 13:43:08,15.08848494,0.0001227,53.2155,172.1519,99.8495,260.2635,3.1988e-05,2.21e-06,0.0,0 STARLINK-4253,1 53004U 22076U   24060.57162667  .00000221  00000-0  31988-4 0  9999,2 53004  53.2155 172.1519 0001227  99.8495 260.2635 15.08848494 91260,6917.854,95.437,540.568,538.871,0.0
53004.0,STARLINK-4253,PAYLOAD,2024-03-01 13:33:55,15.08848759,0.0001262,53.2161,167.6909,95.0336,265.08,0.00011453,1.536e-05,0.0,0 STARLINK-4253,1 53004U 22076U   24061.56522415  .00001536  00000-0  11453-3 0  9994,2 53004  53.2161 167.6909 0001262  95.0336 265.0800 15.08848759 91418,6917.854,95.437,540.592,538.846,0.0
53004.0,STARLINK-4253,PAYLOAD,2024-03-02 11:49:19,15.08845412,0.000131,53.2176,163.5268,100.4164,259.6976,3.1044e-05,2.06e-06,0.0,0 STARLINK-4253,1 53004U 22076U   24062.49258604  .00000206  00000-0  31044-4 0  9995,2 53004  53.2176 163.5268 0001310 100.4164 259.6976 15.08845412 91552,6917.864,95.437,540.635,538.823,0.0
53004.0,STARLINK-4253,PAYLOAD,2024-03-03 11:40:06,15.08838952,0.0001479,53.2176,159.0661,95.535,264.5811,2.5171e-05,1.13e-06,0.0,0 STARLINK-4253,1 53004U 22076U   24063.48619007  .00000113  00000-0  25171-4 0  9994,2 53004  53.2176 159.0661 0001479  95.5350 264.5811 15.08838952 92179,6917.884,95.438,540.772,538.725,0.0
53004.0,STARLINK-4253,PAYLOAD,2024-03-04 13:06:15,15.08859387,0.0001423,53.2169,154.3105,82.941,277.1744,0.00034339,5.184e-05,0.0,0 STARLINK-4253,1 53004U 22076U   24064.54601623  .00005184  00000-0  34339-3 0  9995,2 53004  53.2169 154.3105 0001423  82.9410 277.1744 15.08859387 92336,6917.821,95.436,540.671,538.702,0.0
53004.0,STARLINK-4253,PAYLOAD,2024-03-04 22:38:35,15.08834165,0.0001783,53.2171,152.5282,95.3573,264.7623,-3.9354e-05,-9.14e-06,0.0,0 STARLINK-4253,1 53004U 22076U   24064.94346837 -.00000914  00000-0 -39354-4 0  9993,2 53004  53.2171 152.5282 0001783  95.3573 264.7623 15.08834165 91921,6917.898,95.438,540.997,538.53,0.0
53004.0,STARLINK-4253,PAYLOAD,2024-03-05 12:57:04,15.08819251,0.0001546,53.217,149.8504,100.7344,259.3822,-0.0003216,-5.4e-05,0.0,0 STARLINK-4253,1 53004U 22076U   24065.53963751 -.00005400  00000-0 -32160-3 0  9991,2 53004  53.2170 149.8504 0001546 100.7344 259.3822 15.08819251 92011,6917.944,95.439,540.878,538.739,0.0
53004.0,STARLINK-4253,PAYLOAD,2024-03-06 11:12:28,15.08845697,0.0001501,53.216,145.6868,108.8358,251.2797,0.00117,0.00018384,0.0,0 STARLINK-4253,1 53004U 22076U   24066.46700218  .00018384  00000-0  11700-2 0  9990,2 53004  53.2160 145.6868 0001501 108.8358 251.2797 15.08845697 92624,6917.863,95.437,540.766,538.69,0.0
53004.0,STARLINK-4253,PAYLOAD,2024-03-06 12:47:52,15.08855011,0.0001369,53.2155,145.3892,107.8687,252.2454,0.0014936,0.00023572,0.0,0 STARLINK-4253,1 53004U 22076U   24066.53324111  .00023572  00000-0  14936-2 0  9991,2 53004  53.2155 145.3892 0001369 107.8687 252.2454 15.08855011 92169,6917.835,95.437,540.647,538.752,0.0
53004.0,STARLINK-4253,PAYLOAD,2024-03-07 04:41:43,15.08843662,0.0001541,53.2163,142.417,91.3653,268.7516,0.00029598,4.426e-05,0.0,0 STARLINK-4253,1 53004U 22076U   24067.19564242  .00004426  00000-0  29598-3 0  9993,2 53004  53.2163 142.4170 0001541  91.3653 268.7516 15.08843662 92730,6917.869,95.437,540.8,538.668,0.0
53004.0,STARLINK-4253,PAYLOAD,2024-03-07 12:38:39,15.08841554,0.0001457,53.2157,140.9284,95.5686,264.5473,0.00035377,5.347e-05,0.0,0 STARLINK-4253,1 53004U 22076U   24067.52684416  .00005347  00000-0  35377-3 0  9991,2 53004  53.2157 140.9284 0001457  95.5686 264.5473 15.08841554 92318,6917.876,95.437,540.749,538.733,0.0
53004.0,STARLINK-4253,PAYLOAD,2024-03-08 10:54:02,15.08857354,0.0001433,53.2155,136.7644,96.27,263.8455,0.00032887,4.952e-05,0.0,0 STARLINK-4253,1 53004U 22076U   24068.45419416  .00004952  00000-0  32887-3 0  9994,2 53004  53.2155 136.7644 0001433  96.2700 263.8455 15.08857354 92922,6917.827,95.436,540.684,538.701,0.0
53004.0,STARLINK-4253,PAYLOAD,2024-03-08 22:01:44,15.08848799,0.0001445,53.2176,134.6804,96.7458,263.3699,0.00017391,2.482e-05,0.0,0 STARLINK-4253,1 53004U 22076U   24068.91787547  .00002482  00000-0  17391-3 0  9997,2 53004  53.2176 134.6804 0001445  96.7458 263.3699 15.08848799 92522,6917.853,95.437,540.718,538.719,0.0
53004.0,STARLINK-4253,PAYLOAD,2024-03-09 10:44:49,15.08842514,0.0001337,53.2175,132.3036,88.1855,271.929,0.00012343,1.677e-05,0.0,0 STARLINK-4253,1 53004U 22076U   24069.44779828  .00001677  00000-0  12343-3 0  9996,2 53004  53.2175 132.3036 0001337  88.1855 271.9290 15.08842514 93071,6917.873,95.437,540.663,538.813,0.0
53004.0,STARLINK-4253,PAYLOAD,2024-03-10 13:46:22,15.0884845,0.0001594,53.2157,127.2485,85.075,275.0424,0.00020599,2.993e-05,0.0,0 STARLINK-4253,1 53004U 22076U   24070.57387552  .00002993  00000-0  20599-3 0  9995,2 53004  53.2157 127.2485 0001594  85.0750 275.0424 15.08848450 92772,6917.855,95.437,540.822,538.617,0.0
